{"type":"Feature","properties":{"name":"HK–mainland land/river boundary","source":"OpenStreetMap contributors","license":"ODbL-1.0","retrieved":"2026-10-07","wayIds":["28291441","98699345","144723222","380279207","380354682","535567416","535568984","535581787","611541224","620566159","623890626","625132436","666091457","666131632","693441162","693441164","703347742","703347745","727889409","738491594","738491598","738491604","738491605","738491607","738491608","738491610","738491611","741632649","747988484","747988485","747988487","747988488","751821119","909074084","909074085","909226114","1021861249","1022800928","1108955607","1154283277","1154421366","1326167175","1326178004","1327216881","1443374742","1443374743","1443374748","1443374753","1443374755","1443374758","1443374760","1443383755","1443383757","1443383759","1443383761","1443383765","1443383767","1443383770","1443383772","1511260788"],"modification":"Merged 60 original ways, simplified tolerance 0.00008 degrees; no positional snapping.","licenseUrl":"https://opendatacommons.org/licenses/odbl/1-0/"},"geometry":{"type":"LineString","coordinates":[[114.2260869,22.5442817],[114.2254353,22.5453734],[114.2256867,22.5459944],[114.2266138,22.5470232],[114.2269056,22.5480083],[114.2260835,22.5485002],[114.2254771,22.5493754],[114.2245943,22.5501816],[114.2242778,22.5509468],[114.2232682,22.5509533],[114.2226028,22.5513466],[114.2213023,22.5517545],[114.2209342,22.5522555],[114.2208436,22.5530831],[114.2204661,22.553624],[114.2200993,22.5535927],[114.2197902,22.5537537],[114.2192906,22.5548133],[114.2179046,22.5560469],[114.2169125,22.5557611],[114.2168734,22.5553205],[114.2165433,22.5551539],[114.216245,22.5551022],[114.2160572,22.5552889],[114.2157494,22.5553199],[114.2153028,22.5550177],[114.2148422,22.5549053],[114.2133844,22.5548034],[114.2127504,22.5550421],[114.2124637,22.555409],[114.2119937,22.5556463],[114.211634,22.556235],[114.2112895,22.5564853],[114.2106165,22.5558996],[114.208996,22.5565649],[114.2084918,22.5569402],[114.2071214,22.5565584],[114.2042207,22.556341],[114.2028963,22.5561125],[114.2020158,22.5562172],[114.201546,22.5560884],[114.2011227,22.5566339],[114.2009811,22.5573703],[114.2005956,22.5575176],[114.199009,22.5566303],[114.1980582,22.5567609],[114.1980033,22.5566358],[114.1975524,22.5565187],[114.196945,22.5568346],[114.1961252,22.5569662],[114.196042,22.5559256],[114.1958401,22.5557074],[114.195317,22.5556914],[114.1950398,22.5553774],[114.1941912,22.5553341],[114.1932371,22.5554563],[114.1922607,22.5560333],[114.1919584,22.5559715],[114.1914701,22.5554698],[114.1911935,22.5553788],[114.1905064,22.5543745],[114.1892016,22.5542256],[114.188761,22.5545699],[114.1884567,22.5552615],[114.1881218,22.5556237],[114.1877317,22.5556697],[114.1873149,22.5555567],[114.1868705,22.5547421],[114.1866373,22.5546378],[114.1843048,22.5552166],[114.1830627,22.5552375],[114.1816596,22.5554369],[114.1812199,22.5551179],[114.1811696,22.5542741],[114.1809778,22.5541154],[114.1798963,22.5547821],[114.1776763,22.5556826],[114.1777878,22.5560541],[114.177607,22.5585055],[114.1773959,22.559498],[114.1770558,22.5598099],[114.175842,22.5600943],[114.1747138,22.5599769],[114.1731323,22.5595831],[114.1727182,22.5596735],[114.1708505,22.5596386],[114.1701868,22.5599122],[114.1691363,22.5610735],[114.1687954,22.56122],[114.1678514,22.5612942],[114.1670492,22.5610306],[114.1660365,22.5599402],[114.1651359,22.5592189],[114.1635425,22.5591599],[114.1632225,22.5593364],[114.162354,22.5613302],[114.1618353,22.5618131],[114.1612843,22.5619295],[114.1602501,22.5613456],[114.1593106,22.5601854],[114.1590768,22.5596451],[114.1584226,22.5591054],[114.1571784,22.5563987],[114.1569326,22.5553723],[114.1567048,22.5550777],[114.1564016,22.555002],[114.1560567,22.5551947],[114.1557766,22.5551558],[114.1552007,22.5548089],[114.1547922,22.5543669],[114.1537158,22.5544614],[114.1523573,22.5548438],[114.1520076,22.5546801],[114.1516596,22.5531663],[114.1516451,22.5517697],[114.1512221,22.551164],[114.1502029,22.5507839],[114.1498843,22.5505206],[114.1495612,22.5486613],[114.1496995,22.5482109],[114.1500898,22.5478824],[114.1504911,22.5478376],[114.1514244,22.548126],[114.1516963,22.5480335],[114.1519559,22.5475669],[114.1519005,22.5469356],[114.151411,22.5463761],[114.1506401,22.5462882],[114.1501941,22.5459649],[114.1486953,22.5442074],[114.1483101,22.5432994],[114.1482728,22.5430234],[114.1486241,22.5422681],[114.1486135,22.5421001],[114.1483338,22.5418264],[114.1459193,22.5412462],[114.1445932,22.5411632],[114.1444062,22.5412708],[114.1440445,22.5420225],[114.1421896,22.5421176],[114.1413472,22.5428226],[114.140133,22.5429196],[114.1386407,22.5434863],[114.1380475,22.5435797],[114.1373093,22.5434437],[114.1360337,22.5428557],[114.1349202,22.5418381],[114.1344427,22.5416094],[114.1336596,22.5414828],[114.1312566,22.5419965],[114.1303679,22.5418425],[114.129451,22.5409443],[114.1289152,22.5401987],[114.1283393,22.5397923],[114.127304,22.5396378],[114.1262942,22.5398253],[114.1254478,22.5397873],[114.1223203,22.5379359],[114.1219559,22.5375842],[114.1201884,22.5350637],[114.1197332,22.5348139],[114.1173828,22.5344481],[114.1168122,22.5341998],[114.1164405,22.5338996],[114.1161194,22.5333046],[114.1160185,22.5322209],[114.1155671,22.5312479],[114.1147774,22.5307107],[114.1130823,22.5298618],[114.112203,22.5295796],[114.1115261,22.5296048],[114.1110184,22.5297671],[114.1095858,22.530595],[114.109084,22.5313573],[114.108436,22.5329213],[114.1079334,22.5334794],[114.1072749,22.5338602],[114.1043374,22.5350375],[114.1036356,22.535177],[114.1027235,22.535106],[114.097889,22.5341356],[114.0972742,22.534121],[114.0966667,22.5341929],[114.0957297,22.5345979],[114.0938169,22.5363469],[114.0927171,22.5368811],[114.0917925,22.5370108],[114.0896152,22.5367094],[114.0884649,22.5361332],[114.0876937,22.5353399],[114.0859424,22.5329485],[114.085246,22.5323726],[114.0795624,22.5306965],[114.0780946,22.529794],[114.0775904,22.5289267],[114.0754661,22.5222312],[114.074443,22.5197746],[114.0739075,22.5191556],[114.0725554,22.5183579],[114.0692801,22.5174039],[114.0654878,22.5169402],[114.0644356,22.5166482],[114.0608331,22.5143646],[114.0595297,22.5133299],[114.0584621,22.5120214],[114.0576548,22.5104648],[114.0573065,22.5093356],[114.0569643,22.5058723],[114.0568119,22.5054118],[114.0563791,22.5046529],[114.055634,22.5039374],[114.0548495,22.5034987],[114.0526501,22.5026117],[114.0511124,22.5023406],[114.0504116,22.5023716],[114.0485289,22.5027996],[114.0465514,22.5037299],[114.0453395,22.5040735],[114.0431073,22.5044327],[114.0408354,22.5050651],[114.0340851,22.5060628]]}}